[ {"name": "STARLINK-32572", "line1": "1 61952U 24209P   26168.90802744  .00017039  00000+0  58591-3 0  9997", "line2": "2 61952  53.1593  36.6987 0001229 115.1825 244.9303 15.30209810 90246"}, {"name": "STARLINK-32585", "line1": "1 61953U 24209Q   26169.33437578  .00029267  00000+0  53177-3 0  9996", "line2": "2 61953  53.1595  30.1122 0000943  98.6238 261.4878 15.49337694 90371"}, {"name": "STARLINK-32574", "line1": "1 61954U 24209R   26169.33200605  .00046998  00000+0  84726-3 0  9990", "line2": "2 61954  53.1587  30.0950 0001262  88.9516 271.1637 15.49334018 90397"}, {"name": "STARLINK-32583", "line1": "1 61955U 24209S   26169.03532371  .00060707  00000+0  10901-2 0  9993", "line2": "2 61955  53.1595  31.0864 0001469  55.5011 304.6137 15.49336122 90341"}, {"name": "STARLINK-32273", "line1": "1 61956U 24209T   26169.04393105  .00017398  00000+0  59795-3 0  9998", "line2": "2 61956  53.1588  36.1181 0001111 110.3870 249.7250 15.30210478 90260"}, {"name": "STARLINK-32359", "line1": "1 61957U 24209U   26169.34643039  .00038578  00000+0  69804-3 0  9991", "line2": "2 61957  53.1593  29.4710 0001101 123.7088 236.4026 15.49318329 90402"}, {"name": "STARLINK-32566", "line1": "1 61958U 24209V   26169.64340544  .00037748  00000+0  68261-3 0  9994", "line2": "2 61958  53.1586  27.7728 0001034  98.4371 261.6755 15.49346008 90452"}, {"name": "STARLINK-32499", "line1": "1 61959U 24210A   26169.70532328  .00013128  00000+0  48556-3 0  9998", "line2": "2 61959  43.0063 328.9486 0002999 294.0383  66.0154 15.27591542 90378"}, {"name": "STARLINK-32372", "line1": "1 61960U 24210B   26169.71303479  .00013007  00000+0  48113-3 0  9999", "line2": "2 61960  43.0020 329.0022 0002062 284.8023  75.2600 15.27594762 90230"}, {"name": "STARLINK-32452", "line1": "1 61961U 24210C   26169.72299609  .00010126  00000+0  37695-3 0  9992", "line2": "2 61961  42.9982 322.1539 0001234 275.6131  84.4580 15.27581072 90443"}, {"name": "STARLINK-32458", "line1": "1 61962U 24210D   26169.43671926  .00013862  00000+0  51203-3 0  9998", "line2": "2 61962  43.0002 316.5211 0000584 170.6148 189.4714 15.27597006 90485"}, {"name": "STARLINK-32487", "line1": "1 61963U 24210E   26169.48103870  .00016669  00000+0  61366-3 0  9991", "line2": "2 61963  43.0022 330.6957 0001718 282.2103  77.8556 15.27593220 90324"}, {"name": "STARLINK-32513", "line1": "1 61964U 24210F   26169.42515461  .00014322  00000+0  52866-3 0  9998", "line2": "2 61964  43.0005 316.4373 0000636 170.2071 189.8793 15.27597861 90487"}, {"name": "STARLINK-32514", "line1": "1 61965U 24210G   26169.46530337  .00017463  00000+0  64220-3 0  9998", "line2": "2 61965  43.0015 323.6603 0001314 263.6604  96.4098 15.27602078 90408"}, {"name": "STARLINK-32498", "line1": "1 61966U 24210H   26169.47641041  .00012948  00000+0  47892-3 0  9994", "line2": "2 61966  43.0015 315.9573 0003617 294.9973  65.0503 15.27598126 90493"}, {"name": "STARLINK-32518", "line1": "1 61967U 24210J   26168.51017769  .00018468  00000+0  67887-3 0  9992", "line2": "2 61967  43.0005 329.1963 0001150 238.0586 122.0154 15.27584175 90127"}, {"name": "STARLINK-32471", "line1": "1 61968U 24210K   26169.71657236  .00014000  00000+0  51732-3 0  9995", "line2": "2 61968  43.0033 322.1090 0002599 279.3437  80.7121 15.27578782 90451"}, {"name": "STARLINK-32450", "line1": "1 61969U 24210L   26169.72042667  .00015068  00000+0  55537-3 0  9995", "line2": "2 61969  43.0056 322.1370 0000566 250.1656 109.9135 15.27614550 90318"}, {"name": "STARLINK-32613", "line1": "1 61970U 24210M   26169.49903278  .00015639  00000+0  57644-3 0  9990", "line2": "2 61970  43.0057 330.8324 0002380 266.5890  93.4689 15.27590772 90335"}, {"name": "STARLINK-32610", "line1": "1 61971U 24210N   26169.49132287  .00019761  00000+0  72542-3 0  9999", "line2": "2 61971  43.0027 330.7738 0001690 273.5529  86.5130 15.27592145 90331"}, {"name": "STARLINK-32612", "line1": "1 61972U 24210P   26169.42977594  .00017975  00000+0  66025-3 0  9995", "line2": "2 61972  42.9977 331.1700 0001380 263.8485  96.2209 15.27623079 90287"}, {"name": "STARLINK-32601", "line1": "1 61973U 24210Q   26169.70917591  .00021766  00000+0  79806-3 0  9992", "line2": "2 61973  43.0028 328.9710 0001579 268.2102  91.8569 15.27583812 90333"}, {"name": "STARLINK-32593", "line1": "1 61974U 24210R   26169.50545816  .00021341  00000+0  78240-3 0  9998", "line2": "2 61974  43.0044 330.8833 0001861 275.7697  84.2943 15.27596506 90297"}, {"name": "STARLINK-32586", "line1": "1 61975U 24210S   26169.47718850  .00017196  00000+0  63255-3 0  9998", "line2": "2 61975  42.9997 330.6667 0000983 148.2350 211.8561 15.27600565 90295"}, {"name": "STARLINK-32611", "line1": "1 61976U 24210T   26169.47333264  .00015529  00000+0  57229-3 0  9993", "line2": "2 61976  42.9998 330.6400 0000471 192.1466 167.9374 15.27601031 90292"}, {"name": "STARLINK-32607", "line1": "1 61977U 24210U   26169.48746366  .00025210  00000+0  92210-3 0  9993", "line2": "2 61977  43.0046 330.7418 0001688 258.0766 101.9897 15.27594100 90336"}, {"name": "STARLINK-32606", "line1": "1 61978U 24210V   26169.71945760  .00012180  00000+0  45124-3 0  9993", "line2": "2 61978  43.0025 329.0471 0001839 279.6909  80.3734 15.27591592 90332"}, {"name": "STARLINK-32578", "line1": "1 61979U 24210W   26169.72074373  .00013886  00000+0  51317-3 0  9993", "line2": "2 61979  43.0052 329.0613 0002359 278.7114  81.3470 15.27580664 90377"}, {"name": "STARLINK-32517", "line1": "1 61980U 24210X   26169.50288287  .00014581  00000+0  53805-3 0  9999", "line2": "2 61980  43.0020 330.8593 0001345 246.0792 113.9918 15.27596461 90242"}, {"name": "STARLINK-32522", "line1": "1 61981U 24210Y   26168.88099790  .00026213  00000+0  95763-3 0  9993", "line2": "2 61981  43.0059 333.9368 0005889 261.5457  98.4728 15.27604204 90203"}]