OBJECT_NAME,OBJECT_ID,EPOCH,MEAN_MOTION,ECCENTRICITY,INCLINATION,RA_OF_ASC_NODE,ARG_OF_PERICENTER,MEAN_ANOMALY,EPHEMERIS_TYPE,CLASSIFICATION_TYPE,NORAD_CAT_ID,ELEMENT_SET_NO,REV_AT_EPOCH,BSTAR,MEAN_MOTION_DOT,MEAN_MOTION_DDOT
STARLINK-32572,2024-209P,2026-06-17T21:47:33.570816,15.30209810,.00012294,53.1593,36.6987,115.1825,244.9303,0,U,61952,999,9024,.5859052E-3,.17039E-3,0
STARLINK-32585,2024-209Q,2026-06-18T08:01:30.067392,15.49337694,.0000943,53.1595,30.1122,98.6238,261.4878,0,U,61953,999,9037,.53177E-3,.29267E-3,0
STARLINK-32574,2024-209R,2026-06-18T07:58:05.322720,15.49334018,.0001262,53.1587,30.0950,88.9516,271.1637,0,U,61954,999,9039,.84726E-3,.46998E-3,0
STARLINK-32583,2024-209S,2026-06-18T00:50:51.968544,15.49336122,.00014694,53.1595,31.0864,55.5011,304.6137,0,U,61955,999,9034,.10900521E-2,.60707E-3,0
STARLINK-32273,2024-209T,2026-06-18T01:03:15.642720,15.30210478,.00011117,53.1588,36.1181,110.3870,249.7250,0,U,61956,999,9026,.59795267E-3,.17398E-3,0
STARLINK-32359,2024-209U,2026-06-18T08:18:51.585696,15.49318329,.0001101,53.1593,29.4710,123.7088,236.4026,0,U,61957,999,9040,.69804E-3,.38578E-3,0
STARLINK-32566,2024-209V,2026-06-18T15:26:30.230016,15.49346008,.0001034,53.1586,27.7728,98.4371,261.6755,0,U,61958,999,9045,.68261E-3,.37748E-3,0
STARLINK-32499,2024-210A,2026-06-18T16:55:39.931392,15.27591542,.0002999,43.0063,328.9486,294.0383,66.0154,0,U,61959,999,9037,.48556E-3,.13128E-3,0
STARLINK-32372,2024-210B,2026-06-18T17:06:46.205856,15.27594762,.0002062,43.0020,329.0022,284.8023,75.2600,0,U,61960,999,9023,.48113E-3,.13007E-3,0
STARLINK-32452,2024-210C,2026-06-18T17:21:06.862176,15.27581072,.0001234,42.9982,322.1539,275.6131,84.4580,0,U,61961,999,9044,.37695E-3,.10126E-3,0
STARLINK-32458,2024-210D,2026-06-18T10:28:52.544064,15.27597006,.0000584,43.0002,316.5211,170.6148,189.4714,0,U,61962,999,9048,.51203E-3,.13862E-3,0
STARLINK-32487,2024-210E,2026-06-18T11:32:41.743680,15.27593220,.0001718,43.0022,330.6957,282.2103,77.8556,0,U,61963,999,9032,.61366E-3,.16669E-3,0
STARLINK-32513,2024-210F,2026-06-18T10:12:13.358304,15.27597861,.0000636,43.0005,316.4373,170.2071,189.8793,0,U,61964,999,9048,.52866E-3,.14322E-3,0
STARLINK-32514,2024-210G,2026-06-18T11:10:02.211168,15.27602078,.0001314,43.0015,323.6603,263.6604,96.4098,0,U,61965,999,9040,.6422E-3,.17463E-3,0
STARLINK-32498,2024-210H,2026-06-18T11:26:01.859424,15.27598126,.0003617,43.0015,315.9573,294.9973,65.0503,0,U,61966,999,9049,.47892E-3,.12948E-3,0
STARLINK-32518,2024-210J,2026-06-17T12:14:39.352416,15.27584175,.000115,43.0005,329.1963,238.0586,122.0154,0,U,61967,999,9012,.67886707E-3,.18468E-3,0
STARLINK-32471,2024-210K,2026-06-18T17:11:51.851904,15.27578782,.0002599,43.0033,322.1090,279.3437,80.7121,0,U,61968,999,9045,.51732E-3,.14E-3,0
STARLINK-32450,2024-210L,2026-06-18T17:17:24.864288,15.27614550,.0000566,43.0056,322.1370,250.1656,109.9135,0,U,61969,999,9031,.55537E-3,.15068E-3,0
STARLINK-32613,2024-210M,2026-06-18T11:58:36.432192,15.27590772,.000238,43.0057,330.8324,266.5890,93.4689,0,U,61970,999,9033,.57644E-3,.15639E-3,0
STARLINK-32610,2024-210N,2026-06-18T11:47:30.295968,15.27592145,.000169,43.0027,330.7738,273.5529,86.5130,0,U,61971,999,9033,.72542E-3,.19761E-3,0
STARLINK-32612,2024-210P,2026-06-18T10:18:52.641216,15.27623079,.000138,42.9977,331.1700,263.8485,96.2209,0,U,61972,999,9028,.66025E-3,.17975E-3,0
STARLINK-32601,2024-210Q,2026-06-18T17:01:12.798624,15.27583812,.0001579,43.0028,328.9710,268.2102,91.8569,0,U,61973,999,9033,.79806E-3,.21766E-3,0
STARLINK-32593,2024-210R,2026-06-18T12:07:51.585024,15.27596506,.0001861,43.0044,330.8833,275.7697,84.2943,0,U,61974,999,9029,.7824E-3,.21341E-3,0
STARLINK-32586,2024-210S,2026-06-18T11:27:09.086400,15.27600565,.0000983,42.9997,330.6667,148.2350,211.8561,0,U,61975,999,9029,.63255E-3,.17196E-3,0
STARLINK-32611,2024-210T,2026-06-18T11:21:35.940096,15.27601031,.0000471,42.9998,330.6400,192.1466,167.9374,0,U,61976,999,9029,.57229E-3,.15529E-3,0
STARLINK-32607,2024-210U,2026-06-18T11:41:56.860224,15.27594100,.0001688,43.0046,330.7418,258.0766,101.9897,0,U,61977,999,9033,.9221E-3,.2521E-3,0
STARLINK-32606,2024-210V,2026-06-18T17:16:01.136640,15.27591592,.0001839,43.0025,329.0471,279.6909,80.3734,0,U,61978,999,9033,.45124E-3,.1218E-3,0
STARLINK-32578,2024-210W,2026-06-18T17:17:52.258272,15.27580664,.0002359,43.0052,329.0613,278.7114,81.3470,0,U,61979,999,9037,.51317E-3,.13886E-3,0
STARLINK-32517,2024-210X,2026-06-18T12:04:09.079968,15.27596461,.0001345,43.0020,330.8593,246.0792,113.9918,0,U,61980,999,9024,.53805E-3,.14581E-3,0
STARLINK-32522,2024-210Y,2026-06-17T21:08:38.218560,15.27604204,.00058893,43.0059,333.9368,261.5457,98.4728,0,U,61981,999,9020,.95762521E-3,.26213E-3,0
